O3B FM5                 
1 39188U 13031A   23007.76537376 -.00000021  00000+0  00000+0 0  9995
2 39188   0.0656   3.8704 0002905 288.8782  67.2181  5.00115457174183
O3B FM4                 
1 39189U 13031B   23007.82128628 -.00000021  00000+0  00000+0 0  9999
2 39189   0.0386 356.3906 0002827 295.8006  67.7761  5.00115972174297
O3B FM2                 
1 39190U 13031C   23007.71294026 -.00000021  00000+0  00000+0 0  9995
2 39190   0.0343 352.0533 0002808 298.2180  69.6958  5.00115222174253
O3B PFM                 
1 39191U 13031D   23007.73912834 -.00000021  00000+0  00000+0 0  9992
2 39191   0.0565   3.6794 0002751 282.9754  73.3123  5.00115945173800
O3B FM3                 
1 40079U 14038A   23007.79388961 -.00000021  00000+0  00000+0 0  9991
2 40079   0.0461 358.5901 0004181 255.8875 105.4735  5.00116720150191
O3B FM7                 
1 40080U 14038B   23007.74003680 -.00000021  00000+0  00000+0 0  9990
2 40080   0.0445 353.4643 0003122 329.6268  36.8848  5.00115669155022
O3B FM6                 
1 40081U 14038C   23007.76644634 -.00000021  00000+0  00000+0 0  9993
2 40081   0.0452 359.2336 0002742 286.1020  74.6315  5.00115398154975
O3B FM8                 
1 40082U 14038D   23007.62040075 -.00000021  00000+0  00000+0 0  9998
2 40082   0.0420 359.5992 0002669 285.3427  75.0259  5.00115818155084
O3B FM10                
1 40348U 14083A   23007.84646685 -.00000021  00000+0  00000+0 0  9996
2 40348   0.0519   6.2297 0002814 280.9945  72.7423  5.00115324147215
O3B FM11                
1 40349U 14083B   23007.85987220 -.00000021  00000+0  00000+0 0  9991
2 40349   0.0540   1.5690 0003120 297.5120  60.8851  5.00115492147214
O3B FM12                
1 40350U 14083C   23008.28688734 -.00000021  00000+0  00000+0 0  9999
2 40350   0.0530   1.7880 0002942 287.0109  71.1665  5.00115360147234
O3B FM9                 
1 40351U 14083D   23007.71391636 -.00000021  00000+0  00000+0 0  9999
2 40351   0.0549   0.7624 0002763 287.9928  71.2121  5.00116173147218
DIAMOND RED             
1 42783U 17036U   23008.05950332  .00017864  00000+0  58347-3 0  9996
2 42783  97.1747  47.0328 0008481 330.3449  29.7311 15.31769118308211
DIAMOND GREEN           
1 42785U 17036W   23008.05478907  .00019203  00000+0  62349-3 0  9997
2 42785  97.1748  47.1064 0008270 331.8984  28.1811 15.31947124308200
DIAMOND BLUE            
1 42786U 17036X   23008.38239736  .00017687  00000+0  57555-3 0  9996
2 42786  97.1748  47.4121 0008403 331.2085  28.8692 15.31891912308254
LEO VANTAGE 1           
1 43113U 18004C   23008.03611131  .00003366  00000+0  27341-3 0  9991
2 43113  99.2426 115.0126 0396890 296.3955  59.7013 14.54854575253975
O3B FM15                
1 43231U 18024A   23007.57996298 -.00000021  00000+0  00000+0 0  9997
2 43231   0.0511   9.9752 0003089 277.1019  72.8864  5.00116329 88166
O3B FM16                
1 43232U 18024B   23007.63339280 -.00000021  00000+0  00000+0 0  9997
2 43232   0.0514  14.6452 0003094 273.2204  72.0980  5.00116097 88083
O3B FM14                
1 43233U 18024C   23007.67315987 -.00000021  00000+0  00000+0 0  9990
2 43233   0.0508  16.2562 0003044 275.0728  68.6358  5.00115531 88096
O3B FM13                
1 43234U 18024D   23007.32691457 -.00000022  00000+0  00000+0 0  9993
2 43234   0.0619   6.7981 0003999 279.5204  73.6349  5.00115587 88194
O3B FM20                
1 44112U 19020A   23007.69984559 -.00000021  00000+0  00000+0 0  9993
2 44112   0.0513   6.1772 0003425 284.2638  69.5196  5.00115572 68717
O3B FM19                
1 44113U 19020B   23007.72670836 -.00000021  00000+0  00000+0 0  9998
2 44113   0.0708  13.6553 0002767 302.9668  43.3534  5.00115326 68783
O3B FM17                
1 44114U 19020C   23007.60722723 -.00000021  00000+0  00000+0 0  9999
2 44114   0.0345  20.5422 0003200 265.8834  73.5366  5.00115792 68660
O3B FM18                
1 44115U 19020D   23007.75360044 -.00000021  00000+0  00000+0 0  9990
2 44115   0.0517   6.0360 0002988 281.9168  72.0120  5.00115943 68797
SALSAT                  
1 46495U 20068K   23007.27881670  .00004545  00000+0  31835-3 0  9995
2 46495  97.7525 314.0117 0014985 310.5728  49.4193 15.05658610124841
